#cP2020 10 31  0  0  0.00000000      96 ORBIT IGb14 HLM  IGS
## 2129 518400.00000000   900.00000000 59153 0.0000000000000
+   31   G01G02G03G04G05G06G07G08G09G10G11G12G13G15G16G17G18
+        G19G20G21G22G23G24G25G26G27G28G29G30G31G32  0  0  0
+          0  0  0  0  0  0  0  0  0  0  0  0  0  0  0  0  0
+          0  0  0  0  0  0  0  0  0  0  0  0  0  0  0  0  0
+          0  0  0  0  0  0  0  0  0  0  0  0  0  0  0  0  0
++         2  2  1  2  1  2  2  2  2  2  2  2  2  2  2  2  2
++         2  2  2  1  2  3  2  2  2  2  2  2  2  1  0  0  0
++         0  0  0  0  0  0  0  0  0  0  0  0  0  0  0  0  0
++         0  0  0  0  0  0  0  0  0  0  0  0  0  0  0  0  0
++         0  0  0  0  0  0  0  0  0  0  0  0  0  0  0  0  0
%c G  cc GPS ccc cccc cccc cccc cccc ccccc ccccc ccccc ccccc
%c cc cc ccc ccc cccc cccc cccc cccc ccccc ccccc ccccc ccccc
%f  1.2500000  1.025000000  0.00000000000  0.000000000000000
%f  0.0000000  0.000000000  0.00000000000  0.000000000000000
%i    0    0    0    0      0      0      0      0         0
%i    0    0    0    0      0      0      0      0         0
/* FINAL ORBIT COMBINATION FROM WEIGHTED AVERAGE OF:        
/* cod emr esa gfz grg jpl mit ngs sio                      
/* REFERENCED TO IGS TIME (IGST) AND TO WEIGHTED MEAN POLE: 
/* PCV:IGS14_2129 OL/AL:FES2004  NONE     Y  ORB:CMB CLK:CMB
*  2020 10 31 17 15  0.00000000
PG01 -14284.056255  20713.331190   7726.190567    811.692574  4  8  4  87       
PG02  15867.586300  -2390.723847 -20515.829797   -536.708940  2  6  2  96       
PG03 -17749.948633  12855.540956 -15017.049489   -341.185259  3  5  5  92       
PG04  -7960.538344  14119.911811 -21028.298442   -150.829374  2  6  2  20       
PG05  26364.210273  -1832.116548  -3679.003304    -24.741872  2  3  2  98       
PG06   9072.693845  14067.575023 -20555.469465   -336.383347  3  5  4  72       
PG07  -4300.940899  24801.246455   7975.120850   -404.877695  5  7  5  93       
PG08 -15053.471850   4729.521459  21417.524731    -53.416660  5  3  5  83       
PG09   3466.365681  21579.100591 -15141.237878   -307.575491  5  5  3  38       
PG10 -12293.401527 -12373.915655  20194.388090   -493.392354  2  5  4  80       
PG11 -12503.740432  14824.586781  17830.316728   -121.524307  4  6  5  91       
PG12  20318.536647 -10512.240792 -13597.445628     46.623407  5  6  2  95       
PG13  18022.224009   5380.513258  18666.862978     60.238890  4     4  70       
PG15  14553.469810  -7233.045816  20706.571380   -193.164535  5     2  80       
PG16 -26699.237987   -547.166219  -2575.715446   -230.027190     7  4  71       
PG17  15275.793788  21723.925780   -555.656598    347.581871  5  5  2  70       
PG18   3953.786867 -24630.067882   9033.920160    315.146372  4  8  5 102       
PG19  17595.409666  18436.734339  -7896.391679    -84.438822  3  6  3  77       
PG20    460.698368 -16177.199074  20952.452834    526.208915  4  5  3  72       
PG21 -16997.658898  10069.263414  18353.434114     63.520534  5  6  3  97       
PG22 -22996.827230  10818.487515  -7245.273406   -736.247815  3  5  1  66       
PG23   -607.587336 -15244.178098  21708.299333     94.188401  3  6  6  76       
PG24  14861.098791 -18640.599363  11075.934808      7.080206  6  8  6  73       
PG25   8141.474160 -15323.186311 -20273.701303     14.345428  6  7  2  76       
PG26 -21885.071704  -6368.325633 -13870.400066    304.321549  5  4  4  82       
PG27 -19668.280375  -7507.532048  16254.620523     -3.336913  4  2  3  88       
PG28  12448.163496  13062.751914  20014.802983    661.137360  5  4  2  84       
PG29    -90.412113 -20449.427771 -16960.185663   -227.004552  5  8  4 106       
PG30   3077.295418  21203.906492  15605.085962   -327.414101  5  8  6  87       
PG31 -11015.573970 -11796.141897 -21072.588002    -78.488999  5  6  2  83       
PG32 -16675.315609 -20777.815173   -426.859305    363.154154     5  4 106       
*  2020 10 31 17 30  0.00000000
PG01 -14092.312590  19637.694974  10383.373264    811.689728  4  7  4  95       
PG02  15218.364561     44.629494 -21120.953695   -536.713262  3  6  2 103       
PG03 -19340.805432  12933.375044 -12802.261247   -341.194343  3  5  4  74       
PG04  -9492.509279  12220.722180 -21578.514446   -150.832773     5  2  53       
PG05  25867.286036  -1473.168662  -6431.624324    -24.742960  2  3  2  89       
PG06   8194.459734  16183.269407 -19331.316660   -336.385109  3  6  5  61       
PG07  -4838.648458  25376.522142   5244.101224   -404.884744  5  8  6  78       
PG08 -16569.381342   2873.268719  20636.683249    -53.416993  5  3  4  88       
PG09   2134.538782  20305.157314 -17039.899290   -307.580043  5  4  3  54       
PG10  -9999.671797 -12834.892483  21131.820550   -493.400713  2  5  3  68       
PG11 -12936.216232  12656.113766  19082.278780   -121.514625  4  5  5  99       
PG12  21717.801766 -10467.668459 -11205.553313     46.618686  6  6  2  98       
PG13  19007.859203   7195.053905  17027.316484     60.243795  4  2  4  50       
PG15  16228.852280  -5503.231256  20026.628062   -193.161901  5     2  91       
PG16 -26289.399489   -751.501148  -5388.070152   -230.031663  1  7  4  90       
PG17  15092.065251  21790.712936   2340.587599    347.586292  5  5  3  62       
PG18   4493.502335 -25364.548784   6349.401023    315.151097  3  9  4 104       
PG19  17839.935099  19124.949275  -5132.025426    -84.434449  3  6  3  71       
PG20   2763.740138 -16807.403034  20247.016047    526.209188  4  5  3  51       
PG21 -16546.678764   8059.933038  19791.138731     63.524384  5  6  3 101       
PG22 -23763.111089  10671.802303  -4549.811545   -736.243408  3  5  1  50       
PG23   1822.498692 -15681.774457  21323.623962     94.193220  3  7  6  64       
PG24  14728.862778 -17167.677703  13386.200923      7.081210  5  7  6  50       
PG25  10337.800218 -15575.891898 -19002.729326     14.351118  6  7  2  76       
PG26 -20269.056842  -6912.488284 -15898.662127    304.327030  6  5  4  85       
PG27 -20680.515556  -8941.366374  14188.575227     -3.344643  4  2  4  87       
PG28  10221.607094  13306.757158  21131.309096    661.133139  5  4  3  88       
PG29   1178.417116 -18862.396349 -18679.556143   -227.011800  6  8  4 112       
PG30   2219.391897  22661.450253  13540.825949   -327.420153  5  7  6  95       
PG31 -10042.391716 -13948.049539 -20182.839488    -78.491131  5  6  2  73       
PG32 -16414.107770 -20861.522728   2409.108862    363.157390  1  5  4  81       
*  2020 10 31 17 45  0.00000000
PG01 -13871.790551  18271.217303  12856.643410    811.686907  4  7  4  94       
PG02  14681.413417   2557.305388 -21340.178060   -536.717736  4  5  2 107       
PG03 -20669.601786  13035.792051 -10367.055931   -341.203530  3  5  4  71       
PG04 -11147.928760  10372.897943 -21757.154342   -150.836132  1  4  1  41       
PG05  25096.501844  -1012.231057  -9075.229161    -24.743982  2  3  2 102       
PG06   7480.611413  18192.805810 -17772.605371   -336.386872  4  6  5  84       
PG07  -5254.341648  25676.341883   2420.803296   -404.891720  6  7  6  85       
PG08 -18106.299499   1180.841295  19503.156601    -53.418543  4  2  4  95       
PG09    602.996237  18958.218908 -18646.426129   -307.584652  5  4  3  72       
PG10  -7648.745796 -13437.936248  21710.090440   -493.409055  3  5  3  83       
PG11 -13486.740192  10382.156813  19996.025151   -121.505003  4  4  5 101       
PG12  22841.145863 -10454.082773  -8621.384091     46.614081  6  6  3 106       
PG13  19970.009940   8787.934792  15093.217797     60.247048  3  3  4  52       
PG15  17905.721201  -3920.371619  18994.087527   -193.159964  5     2  95       
PG16 -25584.988240  -1019.769459  -8110.627381   -230.036385  2  7  4  25       
PG17  14707.461022  21615.193031   5196.814970    347.591458  5  6  3  56       
PG18   4895.891916 -25831.512861   3555.231831    315.155811  3 10  4  96       
PG19  17929.960340  19547.278626  -2280.267723    -84.429615  3  5  3  64       
PG20   4942.791081 -17511.596328  19189.179269    526.208826  4  5  3  42       
PG21 -16170.368245   5899.044146  20905.593820     63.527589  5  6  2  90       
PG22 -24239.849994  10466.377823  -1774.986698   -736.238694  3  5  1  57       
PG23   4164.172037 -16229.425207  20570.862121     94.198052  3  7  6  77       
PG24  14608.049027 -15446.774538  15458.779095      7.080392  3  6  6  68       
PG25  12363.971694 -15907.675029 -17408.306745     14.356807  7  7  1  99       
PG26 -18475.844850  -7592.833622 -17656.728084    304.332615  6  6  4  85       
PG27 -21600.621066 -10133.763983  11880.132663     -3.352299  3  3  4  69       
PG28   7912.087083  13687.486484  21900.999675    661.129581  5  4  3  97       
PG29   2644.836938 -17211.759848 -20077.944118   -227.018407  6  8  4 111       
PG30   1511.406842  23925.902933  11241.741144   -327.426236  5  7  5  95       
PG31  -9217.110444 -16036.452846 -18943.814707    -78.493181  5  7  2  56       
PG32 -15940.310130 -20727.557793   5204.052422    363.160652  2  5  3  87       
EOF
